$$SOE
2460721.500000000, A.D. 2025-Feb-15 00:00:00.0000, 1.503475018822215E+08, -3.473065933952951E+08, -3.553932918766083E+07,
2460728.500000000, A.D. 2025-Feb-22 00:00:00.0000, 1.599201139936874E+08, -3.422325397726661E+08, -3.297682590404972E+07,
2460735.500000000, A.D. 2025-Mar-01 00:00:00.0000, 1.693503374887191E+08, -3.368538498999532E+08, -3.038496463983056E+07,
2460742.500000000, A.D. 2025-Mar-08 00:00:00.0000, 1.786286529911419E+08, -3.311730721210526E+08, -2.776585137512395E+07,
2460749.500000000, A.D. 2025-Mar-15 00:00:00.0000, 1.877455275407318E+08, -3.251930484870981E+08, -2.512164707091126E+07,
2460756.500000000, A.D. 2025-Mar-22 00:00:00.0000, 1.966914204439705E+08, -3.189169211727684E+08, -2.245456723497078E+07,
2460763.500000000, A.D. 2025-Mar-29 00:00:00.0000, 2.054567910404948E+08, -3.123481410883963E+08, -1.976688169115086E+07,
2460770.500000000, A.D. 2025-Apr-05 00:00:00.0000, 2.140321087300078E+08, -3.054904755175470E+08, -1.706091431705579E+07,
2460777.500000000, A.D. 2025-Apr-12 00:00:00.0000, 2.224078633515181E+08, -2.983480146427420E+08, -1.433904255638061E+07,
2460784.500000000, A.D. 2025-Apr-19 00:00:00.0000, 2.305745757434824E+08, -2.909251778039759E+08, -1.160369675178972E+07,
2460791.500000000, A.D. 2025-Apr-26 00:00:00.0000, 2.385228087706906E+08, -2.832267196532400E+08, -8.857359330641955E+06,
2460798.500000000, A.D. 2025-May-03 00:00:00.0000, 2.462431789439440E+08, -2.752577361434667E+08, -6.102563842997760E+06,
2460805.500000000, A.D. 2025-May-10 00:00:00.0000, 2.537263686709230E+08, -2.670236702982076E+08, -3.341893844246730E+06,
2460812.500000000, A.D. 2025-May-17 00:00:00.0000, 2.609631391816289E+08, -2.585303177546335E+08, -5.779816195155531E+05,
2460819.500000000, A.D. 2025-May-24 00:00:00.0000, 2.679443443068652E+08, -2.497838320820233E+08, 2.186493239201531E+06,
2460826.500000000, A.D. 2025-May-31 00:00:00.0000, 2.746609455316834E+08, -2.407907295111763E+08, 4.948805400002405E+06,
2460833.500000000, A.D. 2025-Jun-07 00:00:00.0000, 2.811040279242775E+08, -2.315578918183053E+08, 7.706185647676378E+06,
2460840.500000000, A.D. 2025-Jun-14 00:00:00.0000, 2.872648145685358E+08, -2.220925679778528E+08, 1.045582320255609E+07,
2460847.500000000, A.D. 2025-Jun-21 00:00:00.0000, 2.931346806992756E+08, -2.124023777958691E+08, 1.319486813160899E+07,
2460854.500000000, A.D. 2025-Jun-28 00:00:00.0000, 2.987051706458042E+08, -2.024953156921050E+08, 1.592043371640611E+07,
2460861.500000000, A.D. 2025-Jul-05 00:00:00.0000, 3.039680160441251E+08, -1.923797524044255E+08, 1.862959909951370E+07,
2460868.500000000, A.D. 2025-Jul-12 00:00:00.0000, 3.089151541037484E+08, -1.820644353508001E+08, 2.131941225837351E+07,
2460875.500000000, A.D. 2025-Jul-19 00:00:00.0000, 3.135387460941721E+08, -1.715584881566694E+08, 2.398689324821415E+07,
2460882.500000000, A.D. 2025-Jul-26 00:00:00.0000, 3.178311962309324E+08, -1.608714093412135E+08, 2.662903769647449E+07,
2460889.500000000, A.D. 2025-Aug-02 00:00:00.0000, 3.217851709873298E+08, -1.500130700801105E+08, 2.924282055046771E+07,
2460896.500000000, A.D. 2025-Aug-09 00:00:00.0000, 3.253936188058927E+08, -1.389937109987849E+08, 3.182520007952441E+07,
2460903.500000000, A.D. 2025-Aug-16 00:00:00.0000, 3.286497902272626E+08, -1.278239379984598E+08, 3.437312212182008E+07,
2460910.500000000, A.D. 2025-Aug-23 00:00:00.0000, 3.315472586600624E+08, -1.165147170367927E+08, 3.688352455007741E+07,
2460917.500000000, A.D. 2025-Aug-30 00:00:00.0000, 3.340799420455690E+08, -1.050773670865581E+08, 3.935334198200198E+07,
2460924.500000000, A.D. 2025-Sep-06 00:00:00.0000, 3.362421239220641E+08, -9.352355021480717E+07, 4.177951094444539E+07,
2460931.500000000, A.D. 2025-Sep-13 00:00:00.0000, 3.380284721325913E+08, -8.186526121650738E+07, 4.415897543629927E+07,
2460938.500000000, A.D. 2025-Sep-20 00:00:00.0000, 3.394340583504571E+08, -7.011481839938886E+07, 4.648869244545193E+07,
2460945.500000000, A.D. 2025-Sep-27 00:00:00.0000, 3.404543793779241E+08, -5.828485236170923E+07, 4.876563756475474E+07,
2460952.500000000, A.D. 2025-Oct-04 00:00:00.0000, 3.410853780980794E+08, -4.638829218517525E+07, 5.098681092336808E+07,
2460959.500000000, A.D. 2025-Oct-11 00:00:00.0000, 3.413234635989777E+08, -3.443834995794138E+07, 5.314924337680712E+07,
2460966.500000000, A.D. 2025-Oct-18 00:00:00.0000, 3.411655306405990E+08, -2.244850388436015E+07, 5.525000289140151E+07,
2460973.500000000, A.D. 2025-Oct-25 00:00:00.0000, 3.406089784849893E+08, -1.043247996310025E+07, 5.728620109295352E+07,
2460980.500000000, A.D. 2025-Nov-01 00:00:00.0000, 3.396517290045440E+08, 1.595767778904952E+06, 5.925499995612625E+07,
2460987.500000000, A.D. 2025-Nov-08 00:00:00.0000, 3.382922439747221E+08, 1.362207845164904E+07, 6.115361860490724E+07,
2460994.500000000, A.D. 2025-Nov-15 00:00:00.0000, 3.365295415683319E+08, 2.563210678218899E+07, 6.297934017902573E+07,
2461001.500000000, A.D. 2025-Nov-22 00:00:00.0000, 3.343632123197222E+08, 3.761134709115757E+07, 6.472951871670549E+07,
2461008.500000000, A.D. 2025-Nov-29 00:00:00.0000, 3.317934342679672E+08, 4.954515985282778E+07, 6.640158612629049E+07,
2461015.500000000, A.D. 2025-Dec-06 00:00:00.0000, 3.288209848723251E+08, 6.141880064628580E+07, 6.799305941174226E+07,
2461022.500000000, A.D. 2025-Dec-13 00:00:00.0000, 3.254472500139236E+08, 7.321744805109188E+07, 6.950154780410865E+07,
2461029.500000000, A.D. 2025-Dec-20 00:00:00.0000, 3.216742334528542E+08, 8.492623141770631E+07, 7.092475952361365E+07,
2461036.500000000, A.D. 2025-Dec-27 00:00:00.0000, 3.175045655459267E+08, 9.653026100272340E+07, 7.226050844231603E+07,
2461043.500000000, A.D. 2026-Jan-03 00:00:00.0000, 3.129415096563551E+08, 1.080146597402095E+08, 7.350672069145484E+07,
2461050.500000000, A.D. 2026-Jan-10 00:00:00.0000, 3.079889662657932E+08, 1.193645958436879E+08, 7.466144110824677E+07,
2461057.500000000, A.D. 2026-Jan-17 00:00:00.0000, 3.026514749320186E+08, 1.305653160086047E+08, 7.572283945320117E+07,
2461064.500000000, A.D. 2026-Jan-24 00:00:00.0000, 2.969342140925294E+08, 1.416021790885941E+08, 7.668921635262072E+07,
2461071.500000000, A.D. 2026-Jan-31 00:00:00.0000, 2.908429986729725E+08, 1.524606900792987E+08, 7.755900892415564E+07,
2461078.500000000, A.D. 2026-Feb-07 00:00:00.0000, 2.843842755122004E+08, 1.631265341855991E+08, 7.833079603710000E+07,
2461085.500000000, A.D. 2026-Feb-14 00:00:00.0000, 2.775651168242374E+08, 1.735856107833531E+08, 7.900330314714780E+07,
2461092.500000000, A.D. 2026-Feb-21 00:00:00.0000, 2.703932120693501E+08, 1.838240676710849E+08, 7.957540668280363E+07,
2461099.500000000, A.D. 2026-Feb-28 00:00:00.0000, 2.628768571454352E+08, 1.938283365768757E+08, 8.004613814212142E+07,
2461106.500000000, A.D. 2026-Mar-07 00:00:00.0000, 2.550249388539992E+08, 2.035851677879080E+08, 8.041468789982048E+07,
2461113.500000000, A.D. 2026-Mar-14 00:00:00.0000, 2.468469174609372E+08, 2.130816613871369E+08, 8.068040825775261E+07,
2461120.500000000, A.D. 2026-Mar-21 00:00:00.0000, 2.383528091930737E+08, 2.223052978020249E+08, 8.084281578649716E+07,
2461127.500000000, A.D. 2026-Mar-28 00:00:00.0000, 2.295531667262547E+08, 2.312439685050543E+08, 8.090159320044509E+07,
2461134.500000000, A.D. 2026-Apr-04 00:00:00.0000, 2.204590571420471E+08, 2.398860057223904E+08, 8.085659072202410E+07,
2461141.500000000, A.D. 2026-Apr-11 00:00:00.0000, 2.110820377249042E+08, 2.482202106254746E+08, 8.070782686695972E+07,
2461148.500000000, A.D. 2026-Apr-18 00:00:00.0000, 2.014341298764187E+08, 2.562358798472061E+08, 8.045548863073103E+07,
2461155.500000000, A.D. 2026-Apr-25 00:00:00.0000, 1.915277913299506E+08, 2.639228301972479E+08, 8.009993107595128E+07,
2461162.500000000, A.D. 2026-May-02 00:00:00.0000, 1.813758868500772E+08, 2.712714214164042E+08, 7.964167632211457E+07,
2461169.500000000, A.D. 2026-May-09 00:00:00.0000, 1.709916577060123E+08, 2.782725767848322E+08, 7.908141192959690E+07,
2461176.500000000, A.D. 2026-May-16 00:00:00.0000, 1.603886904693615E+08, 2.849178016189126E+08, 7.841998866612108E+07,
2461183.500000000, A.D. 2026-May-23 00:00:00.0000, 1.495808853690854E+08, 2.911992005924851E+08, 7.765841774966379E+07,
2461190.500000000, A.D. 2026-May-30 00:00:00.0000, 1.385824223096073E+08, 2.971094941260001E+08, 7.679786780027649E+07,
2461197.500000000, A.D. 2026-Jun-06 00:00:00.0000, 1.274077244129788E+08, 3.026420305143675E+08, 7.583966128257267E+07,
2461204.500000000, A.D. 2026-Jun-13 00:00:00.0000, 1.160714229400901E+08, 3.077907939690009E+08, 7.478527014982504E+07,
2461211.500000000, A.D. 2026-Jun-20 00:00:00.0000, 1.045883232859101E+08, 3.125504114868484E+08, 7.363631100552706E+07,
2461218.500000000, A.D. 2026-Jun-27 00:00:00.0000, 9.297337053718756E+07, 3.169161582056838E+08, 7.239453994124676E+07,
2461225.500000000, A.D. 2026-Jul-04 00:00:00.0000, 8.124161477450714E+07, 3.208839604907255E+08, 7.106184702236006E+07,
2461232.500000000, A.D. 2026-Jul-11 00:00:00.0000, 6.940817655055457E+07, 3.244503966586543E+08, 6.964025042516384E+07,
2461239.500000000, A.D. 2026-Jul-18 00:00:00.0000, 5.748821280851488E+07, 3.276126954184553E+08, 6.813189025806384E+07,
2461246.500000000, A.D. 2026-Jul-25 00:00:00.0000, 4.549688342757369E+07, 3.303687321000132E+08, 6.653902210495406E+07,
2461253.500000000, A.D. 2026-Aug-01 00:00:00.0000, 3.344931859599468E+07, 3.327170227038766E+08, 6.486401032321727E+07,
2461260.500000000, A.D. 2026-Aug-08 00:00:00.0000, 2.136058736748049E+07, 3.346567158300377E+08, 6.310932111479166E+07,
2461267.500000000, A.D. 2026-Aug-15 00:00:00.0000, 9.245667943986040E+06, 3.361875830419285E+08, 6.127751541042121E+07,
2461274.500000000, A.D. 2026-Aug-22 00:00:00.0000, -2.880580959009646E+06, 3.373100090049365E+08, 5.937124177808073E+07,
2461281.500000000, A.D. 2026-Aug-29 00:00:00.0000, -1.500344984589777E+07, 3.380249801464842E+08, 5.739322949154866E+07,
2461288.500000000, A.D. 2026-Sep-05 00:00:00.0000, -2.710840705302680E+07, 3.383340690872005E+08, 5.534628136484320E+07,
$$EOE